start=new Date('2023-06-03T00:00:00.000Z').valueOf();
sats=[{"LAUNCH_DATE":"2022-05-14","INCLINATION":"53.2167","PERIOD":"95.437","EPOCH":"2023-06-02T15:04:26.499936","GP_ID":"233072673","FILE":"3923570","ECCENTRICITY":"0.00012520","TLE_LINE1":"1 52647U 22052BB  23153.62808449  .00000821  00000-0  69635-4 0  9994","PERIAPSIS":"538.876","CLASSIFICATION_TYPE":"U","BSTAR":"0.00006963500000","MEAN_MOTION":"15.08841162","TIME_SYSTEM":"UTC","MEAN_MOTION_DOT":"0.00000821","OBJECT_NAME":"STARLINK-3846","REF_FRAME":"TEME","EPHEMERIS_TYPE":"0","RCS_SIZE":"LARGE","REV_AT_EPOCH":"5850","SEMIMAJOR_AXIS":"6917.877","CENTER_NAME":"EARTH","DECAY_DATE":null,"TLE_LINE2":"2 52647  53.2167 118.0536 0001252  84.7653 275.3482 15.08841162 58502","APOAPSIS":"540.608","ARG_OF_PERICENTER":"84.7653","MEAN_MOTION_DDOT":"0.0000000000000","MEAN_ANOMALY":"275.3482","ELEMENT_SET_NO":"999","OBJECT_TYPE":"PAYLOAD","COUNTRY_CODE":"US","RA_OF_ASC_NODE":"118.0536","NORAD_CAT_ID":"52647","MEAN_ELEMENT_THEORY":"SGP4","OBJECT_ID":"2022-052BB","SITE":"AFETR"},{"FILE":"3923342","GP_ID":"233039584","TLE_LINE1":"1 52648U 22052BC  23153.23431343  .00000010  00000-0  18718-4 0  9993","ECCENTRICITY":"0.00012650","EPOCH":"2023-06-02T05:37:24.680352","PERIOD":"95.438","LAUNCH_DATE":"2022-05-14","INCLINATION":"53.2174","TIME_SYSTEM":"UTC","EPHEMERIS_TYPE":"0","MEAN_MOTION_DOT":"0.00000010","REF_FRAME":"TEME","OBJECT_NAME":"STARLINK-3854","MEAN_MOTION":"15.08838698","CLASSIFICATION_TYPE":"U","BSTAR":"0.00001871800000","PERIAPSIS":"538.874","ARG_OF_PERICENTER":"85.3065","APOAPSIS":"540.624","TLE_LINE2":"2 52648  53.2174 119.7109 0001265  85.3065 274.8072 15.08838698 58434","REV_AT_EPOCH":"5843","DECAY_DATE":null,"CENTER_NAME":"EARTH","SEMIMAJOR_AXIS":"6917.884","RCS_SIZE":"LARGE","MEAN_ELEMENT_THEORY":"SGP4","SITE":"AFETR","OBJECT_ID":"2022-052BC","COUNTRY_CODE":"US","NORAD_CAT_ID":"52648","RA_OF_ASC_NODE":"119.7109","OBJECT_TYPE":"PAYLOAD","ELEMENT_SET_NO":"999","MEAN_MOTION_DDOT":"0.0000000000000","MEAN_ANOMALY":"274.8072"},{"EPOCH":"2023-06-02T06:35:40.121088","PERIOD":"95.437","LAUNCH_DATE":"2022-05-14","INCLINATION":"53.2161","FILE":"3923342","GP_ID":"233040836","TLE_LINE1":"1 52649U 22052BD  23153.27476992  .00000623  00000-0  57209-4 0  9995","ECCENTRICITY":"0.00008760","CLASSIFICATION_TYPE":"U","BSTAR":"0.00005720900000","PERIAPSIS":"539.135","TIME_SYSTEM":"UTC","EPHEMERIS_TYPE":"0","MEAN_MOTION_DOT":"0.00000623","REF_FRAME":"TEME","OBJECT_NAME":"STARLINK-3868","MEAN_MOTION":"15.08841583","REV_AT_EPOCH":"5845","DECAY_DATE":null,"CENTER_NAME":"EARTH","SEMIMAJOR_AXIS":"6917.876","RCS_SIZE":"LARGE","ARG_OF_PERICENTER":"73.0538","APOAPSIS":"540.347","TLE_LINE2":"2 52649  53.2161 119.3911 0000876  73.0538 287.0550 15.08841583 58450","OBJECT_TYPE":"PAYLOAD","ELEMENT_SET_NO":"999","MEAN_MOTION_DDOT":"0.0000000000000","MEAN_ANOMALY":"287.0550","MEAN_ELEMENT_THEORY":"SGP4","SITE":"AFETR","OBJECT_ID":"2022-052BD","COUNTRY_CODE":"US","NORAD_CAT_ID":"52649","RA_OF_ASC_NODE":"119.3911"},{"ECCENTRICITY":"0.00011820","TLE_LINE1":"1 52650U 22052BE  23153.17636475 -.00000026  00000-0  16449-4 0  9999","FILE":"3923342","GP_ID":"233041085","PERIOD":"95.438","EPOCH":"2023-06-02T04:13:57.914400","INCLINATION":"53.2178","LAUNCH_DATE":"2022-05-14","OBJECT_NAME":"STARLINK-3891","REF_FRAME":"TEME","MEAN_MOTION_DOT":"-0.00000026","EPHEMERIS_TYPE":"0","TIME_SYSTEM":"UTC","MEAN_MOTION":"15.08838110","BSTAR":"0.00001644900000","CLASSIFICATION_TYPE":"U","PERIAPSIS":"538.933","ARG_OF_PERICENTER":"99.7308","TLE_LINE2":"2 52650  53.2178 110.0819 0001182  99.7308 260.3817 15.08838110 58571","APOAPSIS":"540.569","SEMIMAJOR_AXIS":"6917.886","DECAY_DATE":null,"CENTER_NAME":"EARTH","REV_AT_EPOCH":"5857","RCS_SIZE":"LARGE","OBJECT_ID":"2022-052BE","SITE":"AFETR","MEAN_ELEMENT_THEORY":"SGP4","RA_OF_ASC_NODE":"110.0819","NORAD_CAT_ID":"52650","COUNTRY_CODE":"US","ELEMENT_SET_NO":"999","OBJECT_TYPE":"PAYLOAD","MEAN_ANOMALY":"260.3817","MEAN_MOTION_DDOT":"0.0000000000000"},{"MEAN_ANOMALY":"255.9639","MEAN_MOTION_DDOT":"0.0000000000000","ELEMENT_SET_NO":"999","OBJECT_TYPE":"PAYLOAD","RA_OF_ASC_NODE":"11.8734","NORAD_CAT_ID":"52656","COUNTRY_CODE":"US","OBJECT_ID":"2022-053A","SITE":"AFETR","MEAN_ELEMENT_THEORY":"SGP4","RCS_SIZE":"LARGE","SEMIMAJOR_AXIS":"6917.881","DECAY_DATE":null,"CENTER_NAME":"EARTH","REV_AT_EPOCH":"5851","TLE_LINE2":"2 52656  53.2164  11.8734 0001225 104.1489 255.9639 15.08839924 58515","APOAPSIS":"540.593","ARG_OF_PERICENTER":"104.1489","PERIAPSIS":"538.898","BSTAR":"0.00022251000000","CLASSIFICATION_TYPE":"U","MEAN_MOTION":"15.08839924","OBJECT_NAME":"STARLINK-4004","REF_FRAME":"TEME","MEAN_MOTION_DOT":"0.00003255","EPHEMERIS_TYPE":"0","TIME_SYSTEM":"UTC","INCLINATION":"53.2164","LAUNCH_DATE":"2022-05-18","PERIOD":"95.438","EPOCH":"2023-06-02T20:49:32.284992","ECCENTRICITY":"0.00012250","TLE_LINE1":"1 52656U 22053A   23153.86773478  .00003255  00000-0  22251-3 0  9990","GP_ID":"233073422","FILE":"3923570"},{"PERIOD":"95.437","EPOCH":"2023-06-02T21:00:08.112096","INCLINATION":"53.2185","LAUNCH_DATE":"2022-05-18","ECCENTRICITY":"0.00011820","TLE_LINE1":"1 52657U 22053B   23153.87509389 -.00000354  00000-0 -41640-5 0  9994","GP_ID":"233072173","FILE":"3923570","BSTAR":"-0.00000416400000","CLASSIFICATION_TYPE":"U","PERIAPSIS":"538.915","OBJECT_NAME":"STARLINK-4084","REF_FRAME":"TEME","MEAN_MOTION_DOT":"-0.00000354","EPHEMERIS_TYPE":"0","TIME_SYSTEM":"UTC","MEAN_MOTION":"15.08844214","SEMIMAJOR_AXIS":"6917.868","DECAY_DATE":null,"CENTER_NAME":"EARTH","REV_AT_EPOCH":"5881","RCS_SIZE":"LARGE","ARG_OF_PERICENTER":"88.3392","TLE_LINE2":"2 52657  53.2185  11.8388 0001182  88.3392 271.7736 15.08844214 58817","APOAPSIS":"540.550","ELEMENT_SET_NO":"999","OBJECT_TYPE":"PAYLOAD","MEAN_ANOMALY":"271.7736","MEAN_MOTION_DDOT":"0.0000000000000","OBJECT_ID":"2022-053B","SITE":"AFETR","MEAN_ELEMENT_THEORY":"SGP4","RA_OF_ASC_NODE":"11.8388","NORAD_CAT_ID":"52657","COUNTRY_CODE":"US"},{"FILE":"3923570","GP_ID":"233072423","TLE_LINE1":"1 52658U 22053C   23153.87141859  .00000203  00000-0  30869-4 0  9990","ECCENTRICITY":"0.00011830","LAUNCH_DATE":"2022-05-18","INCLINATION":"53.2178","EPOCH":"2023-06-02T20:54:50.566176","PERIOD":"95.437","MEAN_MOTION":"15.08840872","TIME_SYSTEM":"UTC","EPHEMERIS_TYPE":"0","OBJECT_NAME":"STARLINK-4082","REF_FRAME":"TEME","MEAN_MOTION_DOT":"0.00000203","PERIAPSIS":"538.924","CLASSIFICATION_TYPE":"U","BSTAR":"0.00003086900000","APOAPSIS":"540.561","TLE_LINE2":"2 52658  53.2178  11.8614 0001183  87.6076 272.5052 15.08840872 58630","ARG_OF_PERICENTER":"87.6076","RCS_SIZE":"LARGE","REV_AT_EPOCH":"5863","DECAY_DATE":null,"CENTER_NAME":"EARTH","SEMIMAJOR_AXIS":"6917.878","COUNTRY_CODE":"US","NORAD_CAT_ID":"52658","RA_OF_ASC_NODE":"11.8614","MEAN_ELEMENT_THEORY":"SGP4","SITE":"AFETR","OBJECT_ID":"2022-053C","MEAN_MOTION_DDOT":"0.0000000000000","MEAN_ANOMALY":"272.5052","OBJECT_TYPE":"PAYLOAD","ELEMENT_SET_NO":"999"},{"ECCENTRICITY":"0.00014510","TLE_LINE1":"1 52659U 22053D   23153.87237776 -.00001933  00000-0 -10339-3 0  9997","FILE":"3923570","GP_ID":"233072674","PERIOD":"95.438","EPOCH":"2023-06-02T20:56:13.438464","INCLINATION":"53.2154","LAUNCH_DATE":"2022-05-18","REF_FRAME":"TEME","OBJECT_NAME":"STARLINK-3960","MEAN_MOTION_DOT":"-0.00001933","EPHEMERIS_TYPE":"0","TIME_SYSTEM":"UTC","MEAN_MOTION":"15.08835970","BSTAR":"-0.00010339000000","CLASSIFICATION_TYPE":"U","PERIAPSIS":"538.754","ARG_OF_PERICENTER":"109.2106","TLE_LINE2":"2 52659  53.2154  11.8524 0001451 109.2106 250.9044 15.08835970 58621","APOAPSIS":"540.761","SEMIMAJOR_AXIS":"6917.893","DECAY_DATE":null,"CENTER_NAME":"EARTH","REV_AT_EPOCH":"5862","RCS_SIZE":"LARGE","OBJECT_ID":"2022-053D","SITE":"AFETR","MEAN_ELEMENT_THEORY":"SGP4","RA_OF_ASC_NODE":"11.8524","NORAD_CAT_ID":"52659","COUNTRY_CODE":"US","ELEMENT_SET_NO":"999","OBJECT_TYPE":"PAYLOAD","MEAN_ANOMALY":"250.9044","MEAN_MOTION_DDOT":"0.0000000000000"},{"ARG_OF_PERICENTER":"97.3738","TLE_LINE2":"2 52660  53.2165  11.8941 0001166  97.3738 262.7387 15.08840074 58519","APOAPSIS":"540.552","REV_AT_EPOCH":"5851","SEMIMAJOR_AXIS":"6917.880","CENTER_NAME":"EARTH","DECAY_DATE":null,"RCS_SIZE":"LARGE","MEAN_ELEMENT_THEORY":"SGP4","OBJECT_ID":"2022-053E","SITE":"AFETR","COUNTRY_CODE":"US","RA_OF_ASC_NODE":"11.8941","NORAD_CAT_ID":"52660","ELEMENT_SET_NO":"999","OBJECT_TYPE":"PAYLOAD","MEAN_MOTION_DDOT":"0.0000000000000","MEAN_ANOMALY":"262.7387","FILE":"3923570","GP_ID":"233072922","ECCENTRICITY":"0.00011660","TLE_LINE1":"1 52660U 22053E   23153.86405503  .00000630  00000-0  57649-4 0  9990","PERIOD":"95.438","EPOCH":"2023-06-02T20:44:14.354592","LAUNCH_DATE":"2022-05-18","INCLINATION":"53.2165","TIME_SYSTEM":"UTC","OBJECT_NAME":"STARLINK-4081","MEAN_MOTION_DOT":"0.00000630","REF_FRAME":"TEME","EPHEMERIS_TYPE":"0","MEAN_MOTION":"15.08840074","CLASSIFICATION_TYPE":"U","BSTAR":"0.00005764900000","PERIAPSIS":"538.939"},{"ARG_OF_PERICENTER":"96.2702","APOAPSIS":"540.532","TLE_LINE2":"2 52661  53.2175  11.6106 0001147  96.2702 263.8421 15.08842341 58453","CENTER_NAME":"EARTH","DECAY_DATE":null,"SEMIMAJOR_AXIS":"6917.873","REV_AT_EPOCH":"5845","RCS_SIZE":"LARGE","SITE":"AFETR","OBJECT_ID":"2022-053F","MEAN_ELEMENT_THEORY":"SGP4","NORAD_CAT_ID":"52661","RA_OF_ASC_NODE":"11.6106","COUNTRY_CODE":"US","OBJECT_TYPE":"PAYLOAD","ELEMENT_SET_NO":"999","MEAN_ANOMALY":"263.8421","MEAN_MOTION_DDOT":"0.0000000000000","TLE_LINE1":"1 52661U 22053F   23153.92661426  .00001000  00000-0  80891-4 0  9993","ECCENTRICITY":"0.00011470","GP_ID":"233071673","FILE":"3923570","EPOCH":"2023-06-02T22:14:19.472064","PERIOD":"95.437","INCLINATION":"53.2175","LAUNCH_DATE":"2022-05-18","EPHEMERIS_TYPE":"0","MEAN_MOTION_DOT":"0.00001000","REF_FRAME":"TEME","OBJECT_NAME":"STARLINK-4042","TIME_SYSTEM":"UTC","MEAN_MOTION":"15.08842341","BSTAR":"0.00008089100000","CLASSIFICATION_TYPE":"U","PERIAPSIS":"538.945"}];
